OBJECT_NAME,OBJECT_ID,EPOCH,MEAN_MOTION,ECCENTRICITY,INCLINATION,RA_OF_ASC_NODE,ARG_OF_PERICENTER,MEAN_ANOMALY,EPHEMERIS_TYPE,CLASSIFICATION_TYPE,NORAD_CAT_ID,ELEMENT_SET_NO,REV_AT_EPOCH,BSTAR,MEAN_MOTION_DOT,MEAN_MOTION_DDOT
TIANMU-1 21,2023-208C,2026-06-16T20:33:23.645088,15.35072481,.0005992,97.4511,287.4683,325.1030,34.9819,0,U,58662,999,13751,.23342E-3,.7866E-4,0
TIANMU-1 22,2023-208D,2026-06-16T19:28:16.816800,15.31054130,.0003252,97.4507,284.0450,5.6141,354.5136,0,U,58663,999,13727,.2142E-3,.6348E-4,0
TIANMU-1 15,2024-004A,2026-06-16T20:04:34.932288,15.27020492,.0006737,97.4664,354.0265,3.5987,356.5299,0,U,58700,999,13572,.17112E-3,.4464E-4,0
TIANMU-1 16,2024-004B,2026-06-16T19:48:59.525280,15.26745448,.0005867,97.4610,353.2529,9.1225,351.0119,0,U,58701,999,13572,.17238E-3,.446E-4,0
TIANMU-1 17,2024-004C,2026-06-16T21:02:25.418112,15.26745305,.0005554,97.4638,353.7887,15.5913,344.5496,0,U,58702,999,13572,.1756E-3,.4544E-4,0
TIANMU-1 18,2024-004D,2026-06-16T20:28:30.046656,15.27002637,.0004086,97.4656,354.0205,16.4236,343.7135,0,U,58703,999,13572,.17121E-3,.4463E-4,0
INSAT-3DS,2024-033A,2026-06-16T16:49:38.025120,1.00271371,.0001001,0.0433,112.2519,322.3943,164.8294,0,U,58990,999,4706,0,-.158E-5,0
METEOR-M2 4,2024-039A,2026-06-16T19:57:40.875840,14.22429477,.0007264,98.7010,127.1342,161.9749,198.1687,0,U,59051,999,11921,.18715E-4,-.2E-7,0
GOES 19,2024-119A,2026-06-16T14:22:05.432736,1.00271370,.0000387,0.0076,86.7798,98.2994,220.1202,0,U,60133,999,695,0,-.25E-5,0
MTG-S1,2025-143A,2026-06-16T18:07:33.631104,1.00272107,.0000992,0.6036,338.8844,11.8800,182.6770,0,U,64723,999,341,0,-.34E-6,0
METOP-SGA1,2025-172A,2026-06-16T03:40:47.624736,14.21509720,.0000902,98.6644,226.8998,93.8213,266.3067,0,U,65159,999,4364,.41999845E-4,.49E-6,0
FENGYUN 3H,2025-219A,2026-06-16T18:13:14.172384,14.19920438,.0001592,98.6767,108.5366,77.1955,282.9400,0,U,65815,999,3732,.38936E-4,.39E-6,0
