TIANMU-1 21             
1 58662U 23208C   26167.85652367  .00007866  00000+0  23342-3 0  9999
2 58662  97.4511 287.4683 0005992 325.1030  34.9819 15.35072481137510
TIANMU-1 22             
1 58663U 23208D   26167.81130575  .00006348  00000+0  21420-3 0  9997
2 58663  97.4507 284.0450 0003252   5.6141 354.5136 15.31054130137274
TIANMU-1 15             
1 58700U 24004A   26167.83651542  .00004464  00000+0  17112-3 0  9998
2 58700  97.4664 354.0265 0006737   3.5987 356.5299 15.27020492135727
TIANMU-1 16             
1 58701U 24004B   26167.82568895  .00004460  00000+0  17238-3 0  9991
2 58701  97.4610 353.2529 0005867   9.1225 351.0119 15.26745448135728
TIANMU-1 17             
1 58702U 24004C   26167.87668308  .00004544  00000+0  17560-3 0  9998
2 58702  97.4638 353.7887 0005554  15.5913 344.5496 15.26745305135726
TIANMU-1 18             
1 58703U 24004D   26167.85312554  .00004463  00000+0  17121-3 0  9999
2 58703  97.4656 354.0205 0004086  16.4236 343.7135 15.27002637135728
INSAT-3DS               
1 58990U 24033A   26167.70113455 -.00000158  00000+0  00000+0 0  9994
2 58990   0.0433 112.2519 0001001 322.3943 164.8294  1.00271371 47065
METEOR-M2 4             
1 59051U 24039A   26167.83172310 -.00000002  00000+0  18715-4 0  9993
2 59051  98.7010 127.1342 0007264 161.9749 198.1687 14.22429477119219
GOES 19                 
1 60133U 24119A   26167.59867399 -.00000250  00000+0  00000+0 0  9994
2 60133   0.0076  86.7798 0000387  98.2994 220.1202  1.00271370  6952
MTG-S1                  
1 64723U 25143A   26167.75525036 -.00000034  00000+0  00000+0 0  9998
2 64723   0.6036 338.8844 0000992  11.8800 182.6770  1.00272107  3414
METOP-SGA1              
1 65159U 25172A   26167.15332899  .00000049  00000+0  42000-4 0  9997
2 65159  98.6644 226.8998 0000902  93.8213 266.3067 14.21509720 43644
FENGYUN 3H              
1 65815U 25219A   26167.75919181  .00000039  00000+0  38936-4 0  9991
2 65815  98.6767 108.5366 0001592  77.1955 282.9400 14.19920438 37321
